[{"OBJECT_NAME":"CREW DRAGON 12","OBJECT_ID":"2026-031A","EPOCH":"2026-03-07T06:06:36.812736","MEAN_MOTION":15.4850151,"ECCENTRICITY":0.00081427,"INCLINATION":51.6318,"RA_OF_ASC_NODE":84.3952,"ARG_OF_PERICENTER":166.2106,"MEAN_ANOMALY":193.9106,"EPHEMERIS_TYPE":0,"CLASSIFICATION_TYPE":"U","NORAD_CAT_ID":67796,"ELEMENT_SET_NO":999,"REV_AT_EPOCH":55583,"BSTAR":0.00028420598,"MEAN_MOTION_DOT":0.00014982,"MEAN_MOTION_DDOT":0}]
